[{"OBJECT_NAME":"STARLINK-4572","OBJECT_ID":"2022-105AW","EPOCH":"2026-03-09T16:09:10.695744","MEAN_MOTION":15.21020685,"ECCENTRICITY":0.00018422,"INCLINATION":97.6182,"RA_OF_ASC_NODE":315.6347,"ARG_OF_PERICENTER":18.3505,"MEAN_ANOMALY":341.7796,"EPHEMERIS_TYPE":0,"CLASSIFICATION_TYPE":"U","NORAD_CAT_ID":53692,"ELEMENT_SET_NO":999,"REV_AT_EPOCH":19355,"BSTAR":0.00056421038,"MEAN_MOTION_DOT":0.00012459,"MEAN_MOTION_DDOT":0},{"OBJECT_NAME":"IRIDE FM5","OBJECT_ID":"2025-276AK","EPOCH":"2026-03-09T22:47:21.359328","MEAN_MOTION":15.1881147,"ECCENTRICITY":0.00041727,"INCLINATION":97.4263,"RA_OF_ASC_NODE":144.1872,"ARG_OF_PERICENTER":15.4541,"MEAN_ANOMALY":344.682,"EPHEMERIS_TYPE":0,"CLASSIFICATION_TYPE":"U","NORAD_CAT_ID":66699,"ELEMENT_SET_NO":999,"REV_AT_EPOCH":1535,"BSTAR":0.00040369446,"MEAN_MOTION_DOT":8.339e-5,"MEAN_MOTION_DDOT":0}]
